[{"OBJECT_NAME":"FORMOSAT 7-2","OBJECT_ID":"2019-036N","EPOCH":"2026-03-09T11:02:55.703616","MEAN_MOTION":14.96019264,"ECCENTRICITY":9.711e-5,"INCLINATION":23.9982,"RA_OF_ASC_NODE":100.9036,"ARG_OF_PERICENTER":99.0828,"MEAN_ANOMALY":260.9782,"EPHEMERIS_TYPE":0,"CLASSIFICATION_TYPE":"U","NORAD_CAT_ID":44351,"ELEMENT_SET_NO":999,"REV_AT_EPOCH":36863,"BSTAR":0.00030629276,"MEAN_MOTION_DOT":3.823e-5,"MEAN_MOTION_DDOT":0},{"OBJECT_NAME":"STARLINK-34014","OBJECT_ID":"2025-098S","EPOCH":"2026-03-09T23:02:15.944064","MEAN_MOTION":14.98326269,"ECCENTRICITY":0.00019954,"INCLINATION":70.0002,"RA_OF_ASC_NODE":273.7444,"ARG_OF_PERICENTER":268.5137,"MEAN_ANOMALY":91.5793,"EPHEMERIS_TYPE":0,"CLASSIFICATION_TYPE":"U","NORAD_CAT_ID":63942,"ELEMENT_SET_NO":999,"REV_AT_EPOCH":4658,"BSTAR":0.00088222016,"MEAN_MOTION_DOT":0.00010448,"MEAN_MOTION_DDOT":0}]
